NORAD_CAT_ID,OBJECT_NAME,OBJECT_TYPE,EPOCH,MEAN_MOTION,ECCENTRICITY,INCLINATION,RA_OF_ASC_NODE,ARG_OF_PERICENTER,MEAN_ANOMALY,BSTAR,MEAN_MOTION_DOT,MEAN_MOTION_DDOT,TLE_LINE0,TLE_LINE1,TLE_LINE2,SEMIMAJOR_AXIS,PERIOD,APOGEE,PERIGEE,DECAYED
51748.0,STARLINK-3501,PAYLOAD,2024-04-20 09:47:01,15.08886498,0.0001519,53.2163,158.9406,83.9066,276.2099,0.0011583,0.00018218,0.0,0 STARLINK-3501,1 51748U 22016AL  24111.40765124  .00018218  00000-0  11583-2 0  9994,2 51748  53.2163 158.9406 0001519  83.9066 276.2099 15.08886498120867,6917.738,95.435,540.654,538.552,0.0
51748.0,STARLINK-3501,PAYLOAD,2024-04-21 03:16:16,15.08838445,0.0001784,53.2174,155.6679,105.5642,254.5547,-0.00017826,-3.124e-05,0.0,0 STARLINK-3501,1 51748U 22016AL  24112.13629710 -.00003124  00000-0 -17826-3 0  9994,2 51748  53.2174 155.6679 0001784 105.5642 254.5547 15.08838445120978,6917.885,95.438,540.984,538.516,0.0
51748.0,STARLINK-3501,PAYLOAD,2024-04-21 08:02:25,15.08812294,0.0002059,53.2176,154.7742,119.9661,240.1535,-0.00083542,-0.0001355,0.0,0 STARLINK-3501,1 51748U 22016AL  24112.33502122 -.00013550  00000-0 -83542-3 0  9995,2 51748  53.2176 154.7742 0002059 119.9661 240.1535 15.08812294119933,6917.965,95.439,541.254,538.406,0.0
51748.0,STARLINK-3501,PAYLOAD,2024-04-22 07:53:13,15.08857013,0.0001737,53.216,150.3043,117.0532,243.0637,0.0015785,0.00024935,0.0,0 STARLINK-3501,1 51748U 22016AL  24113.32862737  .00024935  00000-0  15785-2 0  9996,2 51748  53.2160 150.3043 0001737 117.0532 243.0637 15.08857013121150,6917.828,95.436,540.895,538.492,0.0
51748.0,STARLINK-3501,PAYLOAD,2024-04-23 07:44:00,15.08851097,0.0001742,53.2156,145.853,117.8911,242.2257,0.00096412,0.00015094,0.0,0 STARLINK-3501,1 51748U 22016AL  24114.32222891  .00015094  00000-0  96412-3 0  9991,2 51748  53.2156 145.8530 0001742 117.8911 242.2257 15.08851097121302,6917.846,95.437,540.917,538.506,0.0
51748.0,STARLINK-3501,PAYLOAD,2024-04-24 12:20:56,15.08854608,0.00015,53.2149,140.5004,96.7272,263.3891,0.00043325,6.617e-05,0.0,0 STARLINK-3501,1 51748U 22016AL  24115.51454479  .00006617  00000-0  43325-3 0  9998,2 51748  53.2149 140.5004 0001500  96.7272 263.3891 15.08854608121487,6917.836,95.437,540.738,538.663,0.0
51748.0,STARLINK-3501,PAYLOAD,2024-04-25 01:04:02,15.08840974,0.0001671,53.2144,138.119,95.0962,265.0221,0.00013933,1.93e-05,0.0,0 STARLINK-3501,1 51748U 22016AL  24116.04447080  .00001930  00000-0  13933-3 0  9992,2 51748  53.2144 138.1190 0001671  95.0962 265.0221 15.08840974121564,6917.877,95.437,540.898,538.586,0.0
51748.0,STARLINK-3501,PAYLOAD,2024-04-25 10:36:20,15.08846479,0.0001515,53.2147,136.3387,98.277,261.8394,0.00026892,3.995e-05,0.0,0 STARLINK-3501,1 51748U 22016AL  24116.44190804  .00003995  00000-0  26892-3 0  9996,2 51748  53.2147 136.3387 0001515  98.2770 261.8394 15.08846479120553,6917.861,95.437,540.774,538.678,0.0
51748.0,STARLINK-3501,PAYLOAD,2024-04-26 07:16:21,15.08841735,0.0001514,53.2151,132.473,100.672,259.4443,0.00016816,2.389e-05,0.0,0 STARLINK-3501,1 51748U 22016AL  24117.30303038  .00002389  00000-0  16816-3 0  9998,2 51748  53.2151 132.4730 0001514 100.6720 259.4443 15.08841735121750,6917.875,95.437,540.787,538.693,0.0
51748.0,STARLINK-3501,PAYLOAD,2024-04-27 10:17:54,15.08849008,0.0001486,53.2156,127.417,100.4625,259.6535,0.00022167,3.243e-05,0.0,0 STARLINK-3501,1 51748U 22016AL  24118.42910783  .00003243  00000-0  22167-3 0  9999,2 51748  53.2156 127.4170 0001486 100.4625 259.6535 15.08849008121921,6917.853,95.437,540.746,538.69,0.0
51748.0,STARLINK-3501,PAYLOAD,2024-04-28 03:47:10,15.08834819,0.0001423,53.2153,124.1465,98.6265,261.4888,5.3288e-06,-2.03e-06,0.0,0 STARLINK-3501,1 51748U 22016AL  24119.15775592 -.00000203  00000-0  53288-5 0  9991,2 51748  53.2153 124.1465 0001423  98.6265 261.4888 15.08834819122037,6917.896,95.438,540.746,538.777,0.0
51748.0,STARLINK-3501,PAYLOAD,2024-04-28 10:08:42,15.08837459,0.0001305,53.2164,122.9575,90.5042,269.61,3.3689e-05,2.48e-06,0.0,0 STARLINK-3501,1 51748U 22016AL  24119.42271636  .00000248  00000-0  33689-4 0  9991,2 51748  53.2164 122.9575 0001305  90.5042 269.6100 15.08837459121006,6917.888,95.438,540.656,538.85,0.0
51748.0,STARLINK-3501,PAYLOAD,2024-04-29 05:13:20,15.08840118,0.0001376,53.2166,119.3884,91.6991,268.4159,5.1593e-05,5.33e-06,0.0,0 STARLINK-3501,1 51748U 22016AL  24120.21759480  .00000533  00000-0  51593-4 0  9999,2 51748  53.2166 119.3884 0001376  91.6991 268.4159 15.08840118122192,6917.88,95.438,540.697,538.793,0.0
51748.0,STARLINK-3501,PAYLOAD,2024-04-29 16:21:01,15.0884279,0.000132,53.2166,117.3068,89.4889,270.6255,3.7549e-05,3.1e-06,0.0,0 STARLINK-3501,1 51748U 22016AL  24120.68127302  .00000310  00000-0  37549-4 0  9990,2 51748  53.2166 117.3068 0001320  89.4889 270.6255 15.08842790121193,6917.872,95.437,540.65,538.824,0.0
51748.0,STARLINK-3501,PAYLOAD,2024-04-30 06:39:30,15.08840202,0.0001381,53.2173,114.6311,87.1781,272.9369,0.00014172,1.968e-05,0.0,0 STARLINK-3501,1 51748U 22016AL  24121.27743447  .00001968  00000-0  14172-3 0  9996,2 51748  53.2173 114.6311 0001381  87.1781 272.9369 15.08840202122351,6917.88,95.438,540.7,538.789,0.0
51748.0,STARLINK-3501,PAYLOAD,2024-04-30 16:11:49,15.0883948,0.0001357,53.2171,112.8475,86.2379,273.8769,0.00010207,1.337e-05,0.0,0 STARLINK-3501,1 51748U 22016AL  24121.67487647  .00001337  00000-0  10207-3 0  9992,2 51748  53.2171 112.8475 0001357  86.2379 273.8769 15.08839480121344,6917.882,95.438,540.686,538.808,0.0
51748.0,STARLINK-3501,PAYLOAD,2024-05-01 04:54:54,15.08838191,0.0001397,53.2175,110.4695,95.5445,264.5707,4.5329e-05,4.34e-06,0.0,0 STARLINK-3501,1 51748U 22016AL  24122.20479924  .00000434  00000-0  45329-4 0  9992,2 51748  53.2175 110.4695 0001397  95.5445 264.5707 15.08838191122491,6917.886,95.438,540.717,538.784,0.0
51748.0,STARLINK-3501,PAYLOAD,2024-05-01 06:30:17,15.08838597,0.0001402,53.2174,110.1723,97.0366,263.0786,4.7476e-05,4.68e-06,0.0,0 STARLINK-3501,1 51748U 22016AL  24122.27103881  .00000468  00000-0  47476-4 0  9997,2 51748  53.2174 110.1723 0001402  97.0366 263.0786 15.08838597121439,6917.885,95.438,540.72,538.78,0.0
51748.0,STARLINK-3501,PAYLOAD,2024-05-01 16:02:35,15.0884558,0.0001451,53.218,108.3876,91.5395,268.5764,0.00010679,1.412e-05,0.0,0 STARLINK-3501,1 51748U 22016AL  24122.66847203  .00001412  00000-0  10679-3 0  9997,2 51748  53.2180 108.3876 0001451  91.5395 268.5764 15.08845580122560,6917.863,95.437,540.732,538.725,0.0
51748.0,STARLINK-3501,PAYLOAD,2024-05-02 04:45:40,15.08854225,0.0001407,53.218,106.0085,92.181,267.9343,0.00013464,1.856e-05,0.0,0 STARLINK-3501,1 51748U 22016AL  24123.19838321  .00001856  00000-0  13464-3 0  9994,2 51748  53.2180 106.0085 0001407  92.1810 267.9343 15.08854225122648,6917.837,95.437,540.675,538.729,0.0
51748.0,STARLINK-3501,PAYLOAD,2024-05-02 07:56:26,15.08856149,0.0001374,53.2173,105.413,89.482,270.633,0.00014997,2.101e-05,0.0,0 STARLINK-3501,1 51748U 22016AL  24123.33086082  .00002101  00000-0  14997-3 0  9995,2 51748  53.2173 105.4130 0001374  89.4820 270.6330 15.08856149121594,6917.831,95.437,540.647,538.746,0.0
51748.0,STARLINK-3501,PAYLOAD,2024-05-02 15:53:22,15.088447,0.0001213,53.2156,103.9245,90.8673,269.2458,5.9777e-05,6.64e-06,0.0,0 STARLINK-3501,1 51748U 22016AL  24123.66206833  .00000664  00000-0  59777-4 0  9997,2 51748  53.2156 103.9245 0001213  90.8673 269.2458 15.08844700122719,6917.866,95.437,540.57,538.892,0.0
51748.0,STARLINK-3501,PAYLOAD,2024-05-03 04:36:28,15.08836586,0.0001399,53.2163,101.5461,91.5439,268.5713,1.6438e-05,-2.6e-07,0.0,0 STARLINK-3501,1 51748U 22016AL  24124.19199670 -.00000026  00000-0  16438-4 0  9996,2 51748  53.2163 101.5461 0001399  91.5439 268.5713 15.08836586122791,6917.891,95.438,540.724,538.788,0.0
51748.0,STARLINK-3501,PAYLOAD,2024-05-03 07:47:14,15.08838805,0.000144,53.2161,100.9512,91.4161,268.6996,3.8422e-05,3.24e-06,0.0,0 STARLINK-3501,1 51748U 22016AL  24124.32447533  .00000324  00000-0  38422-4 0  9992,2 51748  53.2161 100.9512 0001440  91.4161 268.6996 15.08838805121741,6917.884,95.438,540.745,538.753,0.0
51748.0,STARLINK-3501,PAYLOAD,2024-05-03 15:44:11,15.0883135,0.0001533,53.2151,99.4639,91.0855,269.0313,-5.474e-05,-1.159e-05,0.0,0 STARLINK-3501,1 51748U 22016AL  24124.65568302 -.00001159  00000-0 -54740-4 0  9996,2 51748  53.2151  99.4639 0001533  91.0855 269.0313 15.08831350122861,6917.907,95.438,540.832,538.711,0.0
51748.0,STARLINK-3501,PAYLOAD,2024-05-04 15:34:58,15.08838345,0.0001478,53.2178,95.0038,95.136,264.9801,-7.1232e-05,-1.421e-05,0.0,0 STARLINK-3501,1 51748U 22016AL  24125.64928322 -.00001421  00000-0 -71232-4 0  9995,2 51748  53.2178  95.0038 0001478  95.1360 264.9801 15.08838345123014,6917.885,95.438,540.773,538.728,0.0
51748.0,STARLINK-3501,PAYLOAD,2024-05-05 04:18:02,15.08843979,0.0001539,53.2164,92.6252,93.8782,266.2386,7.8491e-05,9.62e-06,0.0,0 STARLINK-3501,1 51748U 22016AL  24126.17920033  .00000962  00000-0  78491-4 0  9996,2 51748  53.2164  92.6252 0001539  93.8782 266.2386 15.08843979123091,6917.868,95.437,540.798,538.669,0.0
51748.0,STARLINK-3501,PAYLOAD,2024-05-05 21:47:17,15.08840689,0.0001509,53.2177,89.3546,94.3356,265.7809,0.00025952,3.845e-05,0.0,0 STARLINK-3501,1 51748U 22016AL  24126.90784122  .00003845  00000-0  25952-3 0  9990,2 51748  53.2177  89.3546 0001509  94.3356 265.7809 15.08840689122137,6917.878,95.438,540.787,538.699,0.0
51748.0,STARLINK-3501,PAYLOAD,2024-05-06 04:08:49,15.08855282,0.0001504,53.2166,88.165,92.2862,267.8302,0.00043671,6.672e-05,0.0,0 STARLINK-3501,1 51748U 22016AL  24127.17280038  .00006672  00000-0  43671-3 0  9996,2 51748  53.2166  88.1650 0001504  92.2862 267.8302 15.08855282122172,6917.834,95.437,540.739,538.658,0.0
51748.0,STARLINK-3501,PAYLOAD,2024-05-06 21:38:04,15.08854532,0.0001661,53.2162,84.8944,94.638,265.4802,0.00019002,2.739e-05,0.0,0 STARLINK-3501,1 51748U 22016AL  24127.90143603  .00002739  00000-0  19002-3 0  9994,2 51748  53.2162  84.8944 0001661  94.6380 265.4802 15.08854532123359,6917.836,95.437,540.85,538.552,0.0
